ICEYE-X39               
1 60546U 24149CG  26193.76006052  .00002518  00000+0  20684-3 0  9996
2 60546  97.6785 270.4379 0006992  53.3845 306.8020 15.00062518103956
UMBRA-10                
1 60547U 24149CH  26193.76776418  .00011492  00000+0  55518-3 0  9992
2 60547  97.6986 281.4536 0001520 166.8110 193.3163 15.18808032104613
ICEYE-X33               
1 60548U 24149CJ  26194.16976218  .00002776  00000+0  22290-3 0  9994
2 60548  97.7342 273.1806 0002019  79.7590 280.3862 15.00875982104103
ICEYE-X40               
1 60549U 24149CK  26193.75245365  .00001336  00000+0  11788-3 0  9992
2 60549  97.6800 269.8364 0004271  12.3091 347.8235 14.98059522103904
SATELIOT_1              
1 60550U 24149CL  26193.74148435  .00001022  00000+0  91132-4 0  9997
2 60550  97.6733 269.2147 0005927 359.4020   0.7194 14.98156912103898
BRO-14                  
1 60551U 24149CM  26193.74242294  .00000702  00000+0  67291-4 0  9999
2 60551  97.6861 269.0607 0006934  24.7514 335.4039 14.96231446103811
SATELIOT_3              
1 60552U 24149CN  26193.78419576  .00000537  00000+0  50221-4 0  9994
2 60552  97.6823 270.0724 0005320  15.1822 344.9560 14.98161521103919
BRO-15                  
1 60553U 24149CP  26193.99259326  .00000436  00000+0  43745-4 0  9994
2 60553  97.6795 268.8846 0007923  12.0200 348.1209 14.96221271103862
UM5-RIBAT               
1 60554U 24149CQ  26194.20186595  .00001338  00000+0  10892-3 0  9995
2 60554  97.6612 271.6497 0000914   6.4092 353.7144 15.01213432104097
UM5-EOSAT               
1 60555U 24149CR  26193.76008201  .00002218  00000+0  17506-3 0  9990
2 60555  97.6776 272.2083 0009201  42.2047 317.9884 15.01719853104050
LASARSAT                
1 62391U 24247Q   26193.99643288  .00028123  00000+0  53151-3 0  9993
2 62391  44.9747 117.0092 0006976 149.4103 210.7196 15.47948222 87317
CROCUBE                 
1 62394U 24247T   26193.83193797  .00028068  00000+0  49242-3 0  9998
2 62394  44.9714 114.8252 0007253 157.3362 202.7851 15.50071349 87322
TEVEL2-4                
1 63213U 25052D   26194.64747267  .00011283  00000+0  32889-3 0  9991
2 63213  97.3876  91.0958 0003679  54.9204 305.2385 15.35531702 74175
TEVEL2-5                
1 63214U 25052E   26194.14966326  .00011850  00000+0  34745-3 0  9999
2 63214  97.3876  90.5369 0003788  56.8499 303.3107 15.35333367 74093
TEVEL2-6                
1 63215U 25052F   26193.70635362  .00012019  00000+0  35290-3 0  9998
2 63215  97.3879  90.0772 0003781  60.8657 299.2965 15.35286778 74025
TEVEL2-1                
1 63217U 25052H   26193.67932412  .00011444  00000+0  34224-3 0  9999
2 63217  97.3853  89.6437 0004432  65.2904 294.8800 15.34718554 74007
TEVEL2-3                
1 63218U 25052J   26194.65094920  .00010730  00000+0  32020-3 0  9991
2 63218  97.3853  90.6416 0004147  64.5751 295.5921 15.34803352 74151
TEVEL2-2                
1 63219U 25052K   26194.65746567  .00010878  00000+0  32511-3 0  9991
2 63219  97.3847  90.6260 0004426  63.9557 296.2141 15.34751821 74154
TEVEL2-9                
1 63237U 25052AD  26194.14738760  .00010512  00000+0  33505-3 0  9990
2 63237  97.3915  89.4327 0007831  62.8126 297.3913 15.32691499 74008
TEVEL2-7                
1 63238U 25052AE  26194.65055022  .00009367  00000+0  30172-3 0  9993
2 63238  97.3910  89.8399 0007866  61.2013 299.0017 15.32385883 74071
TEVEL2-8                
1 63239U 25052AF  26194.65905755  .00009789  00000+0  31532-3 0  9990
2 63239  97.3909  89.8240 0007939  61.9516 298.2528 15.32371934 74071
FORESAIL-1 PRIME        
1 66778U 25276DS  26194.15202083  .00002951  00000+0  14455-3 0  9997
2 66778  97.4194 266.9496 0003041  49.5627 310.5873 15.18928427 34341
