OBJECT_NAME,OBJECT_ID,EPOCH,MEAN_MOTION,ECCENTRICITY,INCLINATION,RA_OF_ASC_NODE,ARG_OF_PERICENTER,MEAN_ANOMALY,EPHEMERIS_TYPE,CLASSIFICATION_TYPE,NORAD_CAT_ID,ELEMENT_SET_NO,REV_AT_EPOCH,BSTAR,MEAN_MOTION_DOT,MEAN_MOTION_DDOT
ICEYE-X39,2024-149CG,2026-07-12T18:14:29.228928,15.00062518,.0006992,97.6785,270.4379,53.3845,306.8020,0,U,60546,999,10395,.20684348E-3,.2518E-4,0
UMBRA-10,2024-149CH,2026-07-12T18:25:34.825152,15.18808032,.00015204,97.6986,281.4536,166.8110,193.3163,0,U,60547,999,10461,.55518241E-3,.11492E-3,0
ICEYE-X33,2024-149CJ,2026-07-13T04:04:27.452352,15.00875982,.00020198,97.7342,273.1806,79.7590,280.3862,0,U,60548,999,10410,.22290095E-3,.2776E-4,0
ICEYE-X40,2024-149CK,2026-07-12T18:03:31.995360,14.98059522,.0004271,97.6800,269.8364,12.3091,347.8235,0,U,60549,999,10390,.11788E-3,.1336E-4,0
SATELIOT_1,2024-149CL,2026-07-12T17:47:44.247840,14.98156912,.00059273,97.6733,269.2147,359.4020,0.7194,0,U,60550,999,10389,.91132217E-4,.1022E-4,0
BRO-14,2024-149CM,2026-07-12T17:49:05.342016,14.96231446,.00069342,97.6861,269.0607,24.7514,335.4039,0,U,60551,999,10381,.67290614E-4,.702E-5,0
SATELIOT_3,2024-149CN,2026-07-12T18:49:14.513664,14.98161521,.000532,97.6823,270.0724,15.1822,344.9560,0,U,60552,999,10391,.50220671E-4,.537E-5,0
BRO-15,2024-149CP,2026-07-12T23:49:20.057664,14.96221271,.0007923,97.6795,268.8846,12.0200,348.1209,0,U,60553,999,10386,.43745E-4,.436E-5,0
UM5-RIBAT,2024-149CQ,2026-07-13T04:50:41.218080,15.01213432,.0000914,97.6612,271.6497,6.4092,353.7144,0,U,60554,999,10409,.10892E-3,.1338E-4,0
UM5-EOSAT,2024-149CR,2026-07-12T18:14:31.085664,15.01719853,.00092011,97.6776,272.2083,42.2047,317.9884,0,U,60555,999,10405,.17505912E-3,.2218E-4,0
LASARSAT,2024-247Q,2026-07-12T23:54:51.800832,15.47948222,.00069769,44.9747,117.0092,149.4103,210.7196,0,U,62391,999,8731,.53150637E-3,.28123E-3,0
CROCUBE,2024-247T,2026-07-12T19:57:59.440608,15.50071349,.0007253,44.9714,114.8252,157.3362,202.7851,0,U,62394,999,8732,.49241857E-3,.28068E-3,0
TEVEL2-4,2025-052D,2026-07-13T15:32:21.638688,15.35531702,.00036791,97.3876,91.0958,54.9204,305.2385,0,U,63213,999,7417,.32888732E-3,.11283E-3,0
TEVEL2-5,2025-052E,2026-07-13T03:35:30.905664,15.35333367,.00037888,97.3876,90.5369,56.8499,303.3107,0,U,63214,999,7409,.34745321E-3,.1185E-3,0
TEVEL2-6,2025-052F,2026-07-12T16:57:08.952768,15.35286778,.00037818,97.3879,90.0772,60.8657,299.2965,0,U,63215,999,7402,.35290328E-3,.12019E-3,0
TEVEL2-1,2025-052H,2026-07-12T16:18:13.603968,15.34718554,.00044329,97.3853,89.6437,65.2904,294.8800,0,U,63217,999,7400,.3422388E-3,.11444E-3,0
TEVEL2-3,2025-052J,2026-07-13T15:37:22.010880,15.34803352,.00041473,97.3853,90.6416,64.5751,295.5921,0,U,63218,999,7415,.32019628E-3,.1073E-3,0
TEVEL2-2,2025-052K,2026-07-13T15:46:45.033888,15.34751821,.00044261,97.3847,90.6260,63.9557,296.2141,0,U,63219,999,7415,.32510859E-3,.10878E-3,0
TEVEL2-9,2025-052AD,2026-07-13T03:32:14.288640,15.32691499,.00078316,97.3915,89.4327,62.8126,297.3913,0,U,63237,999,7400,.33504592E-3,.10512E-3,0
TEVEL2-7,2025-052AE,2026-07-13T15:36:47.539008,15.32385883,.0007866,97.3910,89.8399,61.2013,299.0017,0,U,63238,999,7407,.30172016E-3,.9367E-4,0
TEVEL2-8,2025-052AF,2026-07-13T15:49:02.572320,15.32371934,.00079395,97.3909,89.8240,61.9516,298.2528,0,U,63239,999,7407,.31532285E-3,.9789E-4,0
FORESAIL-1 PRIME,2025-276DS,2026-07-13T03:38:54.599712,15.18928427,.00030419,97.4194,266.9496,49.5627,310.5873,0,U,66778,999,3434,.14455425E-3,.2951E-4,0
